$$SOE
2460147.500000000, A.D. 2023-Jul-22 00:00:00.0000, 2.303082425978978E+08, -3.475346937401290E+07, -1.325936908909151E+08,
2460154.500000000, A.D. 2023-Jul-29 00:00:00.0000, 2.347469801305501E+08, -2.276790425601440E+07, -1.280540358666071E+08,
2460161.500000000, A.D. 2023-Aug-05 00:00:00.0000, 2.385962977298254E+08, -1.072508547660454E+07, -1.231928019388453E+08,
2460168.500000000, A.D. 2023-Aug-12 00:00:00.0000, 2.418489820187390E+08, 1.344639688279517E+06, -1.180234604917712E+08,
2460175.500000000, A.D. 2023-Aug-19 00:00:00.0000, 2.444994335777825E+08, 1.341110427170727E+07, -1.125601741880738E+08,
2460182.500000000, A.D. 2023-Aug-26 00:00:00.0000, 2.465436565537379E+08, 2.544440422066371E+07, -1.068177456305285E+08,
2460189.500000000, A.D. 2023-Sep-02 00:00:00.0000, 2.479792431306174E+08, 3.741497754230970E+07, -1.008115654317638E+08,
2460196.500000000, A.D. 2023-Sep-09 00:00:00.0000, 2.488053532397181E+08, 4.929367974462238E+07, -9.455755998146169E+07,
2460203.500000000, A.D. 2023-Sep-16 00:00:00.0000, 2.490226900320476E+08, 6.105185533853111E+07, -8.807213919143486E+07,
2460210.500000000, A.D. 2023-Sep-23 00:00:00.0000, 2.486334718778272E+08, 7.266140554139650E+07, -8.137214445850646E+07,
2460217.500000000, A.D. 2023-Sep-30 00:00:00.0000, 2.476414008733432E+08, 8.409485327795471E+07, -7.447479690751788E+07,
2460224.500000000, A.D. 2023-Oct-07 00:00:00.0000, 2.460516258317171E+08, 9.532540491636652E+07, -6.739764594035658E+07,
2460231.500000000, A.D. 2023-Oct-14 00:00:00.0000, 2.438707011711284E+08, 1.063270054299524E+08, -6.015851866729479E+07,
2460238.500000000, A.D. 2023-Oct-21 00:00:00.0000, 2.411065453002956E+08, 1.170743885865963E+08, -5.277547056082319E+07,
2460245.500000000, A.D. 2023-Oct-28 00:00:00.0000, 2.377683974211331E+08, 1.275431244374007E+08, -4.526673714538910E+07,
2460252.500000000, A.D. 2023-Nov-04 00:00:00.0000, 2.338667718004230E+08, 1.377096633709359E+08, -3.765068676982674E+07,
2460259.500000000, A.D. 2023-Nov-11 00:00:00.0000, 2.294134099517404E+08, 1.475513762131202E+08, -2.994577462399155E+07,
2460266.500000000, A.D. 2023-Nov-18 00:00:00.0000, 2.244212312096424E+08, 1.570465904314760E+08, -2.217049813386910E+07,
2460273.500000000, A.D. 2023-Nov-25 00:00:00.0000, 2.189042820547624E+08, 1.661746226099065E+08, -1.434335384482545E+07,
2460280.500000000, A.D. 2023-Dec-02 00:00:00.0000, 2.128776845124585E+08, 1.749158073253318E+08, -6.482795871235617E+06,
2460287.500000000, A.D. 2023-Dec-09 00:00:00.0000, 2.063575839755976E+08, 1.832515225054627E+08, 1.392804037852570E+06,
2460294.500000000, A.D. 2023-Dec-16 00:00:00.0000, 1.993610969764883E+08, 1.911642114230500E+08, 9.265194779856265E+06,
2460301.500000000, A.D. 2023-Dec-23 00:00:00.0000, 1.919062594645815E+08, 1.986374021613953E+08, 1.711628255188443E+07,
2460308.500000000, A.D. 2023-Dec-30 00:00:00.0000, 1.840119744189257E+08, 2.056557257391531E+08, 2.492816609091736E+07,
2460315.500000000, A.D. 2024-Jan-06 00:00:00.0000, 1.756979571557252E+08, 2.122049306962593E+08, 3.268317048243567E+07,
2460322.500000000, A.D. 2024-Jan-13 00:00:00.0000, 1.669846816558115E+08, 2.182718925211305E+08, 4.036387912107460E+07,
2460329.500000000, A.D. 2024-Jan-20 00:00:00.0000, 1.578933292698633E+08, 2.238446211598438E+08, 4.795316399164216E+07,
2460336.500000000, A.D. 2024-Jan-27 00:00:00.0000, 1.484457378687770E+08, 2.289122674112345E+08, 5.543421454450463E+07,
2460343.500000000, A.D. 2024-Feb-03 00:00:00.0000, 1.386643510945505E+08, 2.334651274174470E+08, 6.279056516966693E+07,
2460350.500000000, A.D. 2024-Feb-10 00:00:00.0000, 1.285721680607012E+08, 2.374946451131016E+08, 7.000612126951747E+07,
2460357.500000000, A.D. 2024-Feb-17 00:00:00.0000, 1.181926936973282E+08, 2.409934127886331E+08, 7.706518397256389E+07,
2460364.500000000, A.D. 2024-Feb-24 00:00:00.0000, 1.075498898180928E+08, 2.439551699231869E+08, 8.395247354448748E+07,
2460371.500000000, A.D. 2024-Mar-02 00:00:00.0000, 9.666812696565168E+07, 2.463748003876225E+08, 9.065315155247849E+07,
2460378.500000000, A.D. 2024-Mar-09 00:00:00.0000, 8.557213718812557E+07, 2.482483280801065E+08, 9.715284182831386E+07,
2460385.500000000, A.D. 2024-Mar-16 00:00:00.0000, 7.428696814339432E+07, 2.495729113104953E+08, 1.034376502758574E+08,
2460392.500000000, A.D. 2024-Mar-23 00:00:00.0000, 6.283793842278545E+07, 2.503468371557471E+08, 1.094941836927649E+08,
2460399.500000000, A.D. 2024-Mar-30 00:00:00.0000, 5.125059184497244E+07, 2.505695158516344E+08, 1.153095678718261E+08,
2460406.500000000, A.D. 2024-Apr-06 00:00:00.0000, 3.955065093959144E+07, 2.502414719264867E+08, 1.208714647328152E+08,
2460413.500000000, A.D. 2024-Apr-13 00:00:00.0000, 2.776397312681929E+07, 2.493643330054138E+08, 1.261680882967222E+08,
2460420.500000000, A.D. 2024-Apr-20 00:00:00.0000, 1.591650861250058E+07, 2.479408190378340E+08, 1.311882198753906E+08,
2460427.500000000, A.D. 2024-Apr-27 00:00:00.0000, 4.034258438963854E+06, 2.459747314374904E+08, 1.359212226201511E+08,
2460434.500000000, A.D. 2024-May-04 00:00:00.0000, -7.856767274272442E+06, 2.434709414762358E+08, 1.403570554131079E+08,
2460441.500000000, A.D. 2024-May-11 00:00:00.0000, -1.973059071749388E+07, 2.404353778672243E+08, 1.444862861189849E+08,
2460448.500000000, A.D. 2024-May-18 00:00:00.0000, -3.156130738132294E+07, 2.368750135865305E+08, 1.483001042361356E+08,
2460455.500000000, A.D. 2024-May-25 00:00:00.0000, -4.332312668556787E+07, 2.327978519431776E+08, 1.517903329838378E+08,
2460462.500000000, A.D. 2024-Jun-01 00:00:00.0000, -5.499041224677970E+07, 2.282129118471599E+08, 1.549494408509435E+08,
2460469.500000000, A.D. 2024-Jun-08 00:00:00.0000, -6.653772159815108E+07, 2.231302122497333E+08, 1.577705526114303E+08,
2460476.500000000, A.D. 2024-Jun-15 00:00:00.0000, -7.793984502187942E+07, 2.175607562893600E+08, 1.602474598396412E+08,
2460483.500000000, A.D. 2024-Jun-22 00:00:00.0000, -8.917184455720650E+07, 2.115165163010736E+08, 1.623746311360190E+08,
2460490.500000000, A.D. 2024-Jun-29 00:00:00.0000, -1.002090953528017E+08, 2.050104178458849E+08, 1.641472221229535E+08,
2460497.500000000, A.D. 2024-Jul-06 00:00:00.0000, -1.110273267624333E+08, 1.980563202478514E+08, 1.655610847515564E+08,
2460504.500000000, A.D. 2024-Jul-13 00:00:00.0000, -1.216026612987150E+08, 1.906689964105706E+08, 1.666127759577786E+08,
2460511.500000000, A.D. 2024-Jul-20 00:00:00.0000, -1.319116534872085E+08, 1.828641130133114E+08, 1.672995659453183E+08,
2460518.500000000, A.D. 2024-Jul-27 00:00:00.0000, -1.419313293186643E+08, 1.746582100676845E+08, 1.676194460662007E+08,
2460525.500000000, A.D. 2024-Aug-03 00:00:00.0000, -1.516392260634521E+08, 1.660686793891472E+08, 1.675711362254835E+08,
2460532.500000000, A.D. 2024-Aug-10 00:00:00.0000, -1.610134323105769E+08, 1.571137419042035E+08, 1.671540917733563E+08,
2460539.500000000, A.D. 2024-Aug-17 00:00:00.0000, -1.700326282015612E+08, 1.478124237376023E+08, 1.663685098530149E+08,
2460546.500000000, A.D. 2024-Aug-24 00:00:00.0000, -1.786761258398108E+08, 1.381845309763269E+08, 1.652153351608018E+08,
2460553.500000000, A.D. 2024-Aug-31 00:00:00.0000, -1.869239097599268E+08, 1.282506229638028E+08, 1.636962650542780E+08,
2460560.500000000, A.D. 2024-Sep-07 00:00:00.0000, -1.947566770826316E+08, 1.180319841613806E+08, 1.618137539277711E+08,
2460567.500000000, A.D. 2024-Sep-14 00:00:00.0000, -2.021558772517954E+08, 1.075505954791811E+08, 1.595710168643315E+08,
2460574.500000000, A.D. 2024-Sep-21 00:00:00.0000, -2.091037533559643E+08, 9.682910539176109E+07, 1.569720327164188E+08,
2460581.500000000, A.D. 2024-Sep-28 00:00:00.0000, -2.155833854845755E+08, 8.589079751823440E+07, 1.540215463295209E+08,
2460588.500000000, A.D. 2024-Oct-05 00:00:00.0000, -2.215787323891599E+08, 7.475955458131994E+07, 1.507250694894234E+08,
2460595.500000000, A.D. 2024-Oct-12 00:00:00.0000, -2.270746717356395E+08, 6.345982162674852E+07, 1.470888807687812E+08,
2460602.500000000, A.D. 2024-Oct-19 00:00:00.0000, -2.320570406214026E+08, 5.201656813177641E+07, 1.431200243207870E+08,
2460609.500000000, A.D. 2024-Oct-26 00:00:00.0000, -2.365126762959195E+08, 4.045524811629935E+07, 1.388263074690863E+08,
2460616.500000000, A.D. 2024-Nov-02 00:00:00.0000, -2.404294567129712E+08, 2.880175803046609E+07, 1.342162969575970E+08,
2460623.500000000, A.D. 2024-Nov-09 00:00:00.0000, -2.437963406868866E+08, 1.708239236538564E+07, 1.292993137453981E+08,
2460630.500000000, A.D. 2024-Nov-16 00:00:00.0000, -2.466034074804023E+08, 5.323796920469403E+06, 1.240854262343034E+08,
2460637.500000000, A.D. 2024-Nov-23 00:00:00.0000, -2.488418956145406E+08, -6.447080378760181E+06, 1.185854418091757E+08,
2460644.500000000, A.D. 2024-Nov-30 00:00:00.0000, -2.505042405128080E+08, -1.820304119882734E+07, 1.128108965555887E+08,
2460651.500000000, A.D. 2024-Dec-07 00:00:00.0000, -2.515841103635356E+08, -2.991669066127487E+07, 1.067740430370823E+08,
2460658.500000000, A.D. 2024-Dec-14 00:00:00.0000, -2.520764406742673E+08, -4.156049214081010E+07, 1.004878361813719E+08,
2460665.500000000, A.D. 2024-Dec-21 00:00:00.0000, -2.519774696075344E+08, -5.310682423931447E+07, 9.396591727662666E+07,
2460672.500000000, A.D. 2024-Dec-28 00:00:00.0000, -2.512847718890731E+08, -6.452804288427794E+07, 8.722259555347565E+07,
2460679.500000000, A.D. 2025-Jan-04 00:00:00.0000, -2.499972884417029E+08, -7.579654612696132E+07, 8.027282721205443E+07,
2460686.500000000, A.D. 2025-Jan-11 00:00:00.0000, -2.481153532911950E+08, -8.688483990385096E+07, 7.313219209704618E+07,
2460693.500000000, A.D. 2025-Jan-18 00:00:00.0000, -2.456407183693100E+08, -9.776560558922227E+07, 6.581686793686123E+07,
2460700.500000000, A.D. 2025-Jan-25 00:00:00.0000, -2.425765756806545E+08, -1.084117697033021E+08, 5.834360201287761E+07,
2460707.500000000, A.D. 2025-Feb-01 00:00:00.0000, -2.389275763545699E+08, -1.187965756613625E+08, 5.072968018156998E+07,
2460714.500000000, A.D. 2025-Feb-08 00:00:00.0000, -2.346998462259970E+08, -1.288936573648853E+08, 4.299289319846273E+07,
$$EOE